{"type": "FeatureCollection", "features": [{"type": "Feature", "id": 0, "properties": {"id": "buk", "name": "Buk-gu", "name_kr": "북구", "tint": 3}, "geometry": {"type": "Polygon", "coordinates": [[[129.02549974111307, 35.193408328667076], [129.02303102339076, 35.18934651555164], [129.02052441674155, 35.18758828639996], [129.01599056537117, 35.18930747563812], [129.0082600286448, 35.18900748332719], [129.00720712199106, 35.19045186348398], [129.00769630669944, 35.19249831429592], [129.00171348937323, 35.19280614737444], [129.00060713934948, 35.191662898355], [128.9982073183999, 35.19230153181104], [128.99391935025963, 35.19526147965966], [128.99111562695626, 35.19382240168314], [128.987946053341, 35.1959047485512], [128.98818504717465, 35.1972385175836], [128.99178006158067, 35.20096171643757], [128.98928172982468, 35.20250427236374], [128.9958135167809, 35.207936038012726], [128.99774370553297, 35.235247397559704], [129.01024623868182, 35.25974190005372], [129.01280566192457, 35.269259128276076], [129.01262517746397, 35.273304750109], [129.0166697326737, 35.27527676291088], [129.02037523536993, 35.27584342604297], [129.02617760938926, 35.27807025839519], [129.03009425108138, 35.278520717067515], [129.03406497908645, 35.27690570156165], [129.03923404218543, 35.27588522443608], [129.04211375027165, 35.279093933210376], [129.04410578115133, 35.28031396345518], [129.0505678912383, 35.28005598956564], [129.04687966452582, 35.273768146964635], [129.0425811218151, 35.26863911046401], [129.04213125428126, 35.26400846802992], [129.0415999361129, 35.26332996291464], [129.0377532167463, 35.26211965556639], [129.03609692814624, 35.259718460588694], [129.03765103622203, 35.25971868593309], [129.04673467740338, 35.257026622284506], [129.0477920449618, 35.25646127515616], [129.0485514320086, 35.25506816052614], [129.04700457565738, 35.254228686995944], [129.0454152960703, 35.252135943974984], [129.0455222494302, 35.247018017539546], [129.0460970367743, 35.246271916540394], [129.0482823840405, 35.246027215863954], [129.0496092363749, 35.24512957946922], [129.051070947826, 35.24102008674408], [129.04992167610965, 35.23897988548466], [129.04881477225084, 35.23847855902306], [129.04915549963502, 35.23802971527923], [129.0457434506553, 35.23334295187482], [129.04609125202282, 35.23131448893426], [129.04912036421635, 35.230865738425344], [129.0515895500284, 35.229648699027926], [129.05971076477323, 35.23002343231531], [129.06057262199613, 35.22847049124852], [129.0599741280662, 35.226789233938575], [129.06019953793606, 35.226222523215064], [129.05925702388717, 35.224037427131506], [129.05779366239855, 35.22272618738611], [129.05627482274767, 35.21908209225564], [129.05134029464645, 35.213239095513515], [129.05145087877557, 35.211363915459664], [129.05039708963582, 35.207216282351425], [129.04510416107487, 35.20197244674127], [129.04358028545965, 35.202162259502074], [129.0438683820718, 35.19838776771251], [129.03955215930657, 35.199500133369256], [129.0355523703332, 35.19845029507213], [129.03380990869755, 35.19762386318155], [129.03194221826087, 35.1952682564373], [129.02752960105158, 35.1935051745276], [129.02549974111307, 35.193408328667076]]]}}, {"type": "Feature", "id": 1, "properties": {"id": "busanjin", "name": "Busanjin-gu", "name_kr": "부산진구", "tint": 1}, "geometry": {"type": "Polygon", "coordinates": [[[129.01708845374898, 35.1360213201635], [129.01132236660203, 35.138189122925816], [129.01309770220325, 35.13871601929739], [129.01614903457846, 35.142240310374774], [129.01567789151815, 35.14692635804637], [129.01667393801887, 35.15281118273202], [129.01594406761035, 35.155712026344524], [129.01522085159675, 35.15666168272065], [129.0106414375882, 35.160154222405225], [129.01102514991956, 35.162724140046876], [129.01284353539765, 35.165674161546214], [129.01169902395307, 35.167375199074904], [129.01170244925513, 35.16880581176889], [129.01009003820303, 35.17035940934349], [129.01017323862936, 35.17360665196827], [129.01138299083289, 35.17411431954438], [129.017860201483, 35.17932587505382], [129.01952145131978, 35.179856428792796], [129.02149994647763, 35.178319704998216], [129.0225151278537, 35.17911186863453], [129.02363801738082, 35.1809168091243], [129.0238044237239, 35.183040099717886], [129.02174892241595, 35.18351552150814], [129.02114382379534, 35.18775116756243], [129.02464219915262, 35.1913683133234], [129.02549974111307, 35.193408328667076], [129.02752960105158, 35.1935051745276], [129.03194221826087, 35.1952682564373], [129.03380990869755, 35.19762386318155], [129.0355523703332, 35.19845029507213], [129.03955215930657, 35.199500133369256], [129.0438683820718, 35.19838776771251], [129.04768709934498, 35.194205354841635], [129.04697401242035, 35.19185820508527], [129.05203714806433, 35.18477676258272], [129.0612026480533, 35.183892703158996], [129.061656377898, 35.18025331078586], [129.0633926826903, 35.177335548617364], [129.06734108929712, 35.176901079556664], [129.07026728099098, 35.17583335774011], [129.07194289180015, 35.17793565716393], [129.07190730762048, 35.17958722641383], [129.07553767481735, 35.177305052988125], [129.08192432748382, 35.171744974445275], [129.08081055997448, 35.167741894365136], [129.07929423261035, 35.16666806021193], [129.07885434069456, 35.1657328571599], [129.07851942589934, 35.162416696134976], [129.08088515843897, 35.15971082201668], [129.0820334198332, 35.15947867215036], [129.08293072250794, 35.15823841213367], [129.0798726982041, 35.15269661804671], [129.07134350926506, 35.14877766571594], [129.06677015286203, 35.14778494550463], [129.0633341325516, 35.14869346032266], [129.06319730675162, 35.143558435524035], [129.06448312933315, 35.141392386501934], [129.05253200679826, 35.1420852694895], [129.04631209110994, 35.14560638503995], [129.04162326583617, 35.14619259330264], [129.04089357733665, 35.14606350182832], [129.0391302421644, 35.14397362013774], [129.03936863126353, 35.14258276413006], [129.03880779358678, 35.14071718043759], [129.0346921078769, 35.137276788004414], [129.03312659718404, 35.13706048772492], [129.03178216556879, 35.13750723588043], [129.02828492429944, 35.13663245195855], [129.0270226263044, 35.13535385603632], [129.0241203041084, 35.13402281469793], [129.0208129052661, 35.13684964740355], [129.01708845374898, 35.1360213201635]]]}}, {"type": "Feature", "id": 2, "properties": {"id": "dong", "name": "Dong-gu", "name_kr": "동구", "tint": 0}, "geometry": {"type": "Polygon", "coordinates": [[[129.03820311018, 35.11200440879226], [129.032649785004, 35.115987180639884], [129.028223563291, 35.11733520105265], [129.02613312823212, 35.116777714805856], [129.02506701125304, 35.11791480642221], [129.0245963451828, 35.11876540448293], [129.0253764415973, 35.121960722952025], [129.02602801068727, 35.129123088104386], [129.0241203041084, 35.13402281469793], [129.0270226263044, 35.13535385603632], [129.02828492429944, 35.13663245195855], [129.03178216556879, 35.13750723588043], [129.03312659718404, 35.13706048772492], [129.0346921078769, 35.137276788004414], [129.03880779358678, 35.14071718043759], [129.03936863126353, 35.14258276413006], [129.0391302421644, 35.14397362013774], [129.04122079602817, 35.14612820717722], [129.045301790826, 35.14598227385516], [129.05084673457657, 35.14335069263142], [129.0517334955218, 35.14230460021694], [129.05253200679826, 35.1420852694895], [129.06448312933315, 35.141392386501934], [129.06609470918582, 35.136977523857595], [129.06529893880335, 35.12962310748651], [129.06465331786407, 35.128935105305914], [129.06486731932878, 35.12726545687672], [129.05603771966514, 35.1179864214885], [129.05273947627137, 35.120125422565714], [129.05253025341025, 35.12069349408506], [129.05525090853658, 35.1229337739466], [129.0553279538692, 35.12531762937498], [129.05454586808386, 35.12581039736536], [129.05270669290672, 35.12567252791694], [129.0500031982967, 35.12353127089619], [129.04857338338374, 35.12048962567982], [129.05281807001643, 35.11761423686878], [129.052801159818, 35.11589958853915], [129.04785990833602, 35.119026027188504], [129.0467137826198, 35.116624957597885], [129.0508718485963, 35.11404067470242], [129.04983024202616, 35.11297791851284], [129.04509842599035, 35.1156815807148], [129.0427298111509, 35.110722158835344], [129.03820311018, 35.11200440879226]]]}}, {"type": "Feature", "id": 3, "properties": {"id": "dongnae", "name": "Dongnae-gu", "name_kr": "동래구", "tint": 4}, "geometry": {"type": "Polygon", "coordinates": [[[129.06461965061138, 35.19224559539907], [129.05988447404104, 35.19130314259165], [129.05576764418285, 35.19237489372974], [129.0530596726225, 35.19207988548004], [129.04768709934498, 35.194205354841635], [129.0440961784267, 35.197939015005375], [129.0435319231323, 35.199290569133915], [129.04347095235528, 35.20124610248782], [129.04358028545965, 35.202162259502074], [129.04510416107487, 35.20197244674127], [129.04999989406124, 35.20665660361398], [129.05097667319382, 35.208442265063105], [129.05164335197517, 35.21374374269487], [129.05627482274767, 35.21908209225564], [129.05779366239855, 35.22272618738611], [129.05925702388717, 35.224037427131506], [129.06019953793606, 35.226222523215064], [129.0622247605961, 35.22682713936157], [129.06611254399343, 35.22687280304722], [129.06653147811932, 35.225297039415], [129.0688204752838, 35.22508350726713], [129.0715536002567, 35.22627084401822], [129.07749712487663, 35.22635084303023], [129.0806954070333, 35.223831458925645], [129.08191635633665, 35.22450954152046], [129.08508609182022, 35.22193056951878], [129.08726030886325, 35.221656807349376], [129.0849441794833, 35.2179222889511], [129.08655780409111, 35.21705278068723], [129.0883288479166, 35.217681819864815], [129.09238784394745, 35.21650163124502], [129.09399480101146, 35.214961450148934], [129.0943588901752, 35.21543237203513], [129.09563465939607, 35.21453932852696], [129.1018710391907, 35.21254637842011], [129.1025243550962, 35.212202122619495], [129.10232916060872, 35.21134512295701], [129.1063593105263, 35.20959120275214], [129.11004041344015, 35.210114243992706], [129.11016251502542, 35.2070585547554], [129.11138457166993, 35.20386730951491], [129.1137764384947, 35.20176638745594], [129.11505869894745, 35.20176739610063], [129.1163781122603, 35.2010936506585], [129.11520816891635, 35.198913409596756], [129.11423504210177, 35.19418918265303], [129.11551643510097, 35.18783048750806], [129.11515612736235, 35.18318347003634], [129.11240573054803, 35.1862657275411], [129.11051622168225, 35.18964437792336], [129.10838087354938, 35.19041339155272], [129.1023705514548, 35.190985270951636], [129.08637208925722, 35.194383233683894], [129.08405601660903, 35.19562783030735], [129.08032678260702, 35.19926690530353], [129.07791497787318, 35.19940384915842], [129.0742621369585, 35.198057395987036], [129.0712285541053, 35.19512139594783], [129.06420308058964, 35.19370123928072], [129.06461965061138, 35.19224559539907]]]}}, {"type": "Feature", "id": 4, "properties": {"id": "gangseo", "name": "Gangseo-gu", "name_kr": "강서구", "tint": 1}, "geometry": {"type": "Polygon", "coordinates": [[[128.83433362728888, 35.067995057607554], [128.83356955482668, 35.066267428925144], [128.83384042034055, 35.06605752399044], [128.8350670252884, 35.066018401091185], [128.83677524801323, 35.06735092289453], [128.83685322975288, 35.0738664252824], [128.83742433370045, 35.07505428429106], [128.84028040653448, 35.07443268863675], [128.84239094743808, 35.069551762908816], [128.8493525474753, 35.068511685076516], [128.85321172059943, 35.06916457310733], [128.85494082481705, 35.069004694725656], [128.85639502811736, 35.06626886101418], [128.85883950493493, 35.06422960818541], [128.85806766152416, 35.063618633375214], [128.8499679369025, 35.06218538913149], [128.8476165613766, 35.061153550465065], [128.84579547761842, 35.05962427748204], [128.84664349557607, 35.056408424723344], [128.85023066330774, 35.05178867672739], [128.85124570069192, 35.041586029842506], [128.85053965813063, 35.03907900149941], [128.8495506657127, 35.03842679432139], [128.8491519205904, 35.03514093710811], [128.84972606113442, 35.03419799681845], [128.8495487195495, 35.03353340994941], [128.84573336417225, 35.032345886963334], [128.8434200521506, 35.030557125288325], [128.84375686335616, 35.02868360663248], [128.84249395356983, 35.02533574566643], [128.8405456500351, 35.02268338622076], [128.8388934028658, 35.01790920788544], [128.83573349674757, 35.01635086390243], [128.83582470536655, 35.0128829567928], [128.8414049255238, 35.006612339149534], [128.8410585468779, 35.00492593223115], [128.83979231419028, 35.00350720235142], [128.83858738800146, 35.00022668936909], [128.84109005336478, 34.99714378162463], [128.84075884728898, 34.996133797725555], [128.8387079793985, 34.996418605246845], [128.83506374414173, 34.99444371426679], [128.8304359415787, 34.989861443555725], [128.8298898777805, 34.988431737075935], [128.82731002810795, 34.988047656887005], [128.82692317209728, 34.989153061133436], [128.82790114826327, 34.991506694244634], [128.8291594485349, 34.992587344276615], [128.8296139896939, 34.994525924295296], [128.82127573142535, 34.99422830792058], [128.82199383486488, 34.99878507480212], [128.82173028273147, 35.000819022157664], [128.8181423113676, 35.00138028727874], [128.81832180509014, 35.00484553691455], [128.82243723821495, 35.00486843137002], [128.82358721808606, 35.005697007715455], [128.82341154594323, 35.00705298815825], [128.8193390345179, 35.00897490845581], [128.81987009877855, 35.009728200356065], [128.82493390914152, 35.01075179688678], [128.82602998529185, 35.01378032650727], [128.82451914709353, 35.01524096452331], [128.8182002981405, 35.01795781702884], [128.8111181488002, 35.01874032176329], [128.81056621151518, 35.02170898261228], [128.80580859847552, 35.020595660852464], [128.80423524450245, 35.02391780118984], [128.80683100911884, 35.024978793408174], [128.81329656120187, 35.02420575479165], [128.81465807591968, 35.02528498450575], [128.8152265700156, 35.027729410575525], [128.81500308839898, 35.02897027579476], [128.81321053778342, 35.03034388111686], [128.8094174385087, 35.03016477270285], [128.80829749782845, 35.03139359037226], [128.80759100441452, 35.03372737295773], [128.81074174777925, 35.0333890296102], [128.81179967231228, 35.034649524644855], [128.81243971522514, 35.03660249039729], [128.8120065399028, 35.04016018478267], [128.80894154342332, 35.042976743659835], [128.80691386490923, 35.043848013371395], [128.80614226594838, 35.04495757699824], [128.80584591045707, 35.04699460435616], [128.80480718866568, 35.04759413003725], [128.79954571205099, 35.04750869507302], [128.79746828723452, 35.048714629237296], [128.79692337015447, 35.04979742245496], [128.79681777834804, 35.05406509746871], [128.79598986690166, 35.05890284224201], [128.7979744989265, 35.05940405515366], [128.7988730676862, 35.057449811490784], [128.80561531427782, 35.05977537877952], [128.8032239906117, 35.065645071548985], [128.83077980982048, 35.072892155652454], [128.83070344561003, 35.080446487298495], [128.80942017623224, 35.081974247467265], [128.80949256161838, 35.08278081783569], [128.81852749290317, 35.083001430939845], [128.82154494191118, 35.084446326015296], [128.8215377015261, 35.08584640500518], [128.82643222931952, 35.08621402148695], [128.82642869611573, 35.08786939309869], [128.8283764260943, 35.089477879444885], [128.83247305545595, 35.08631315072761], [128.8332575496683, 35.08738412075916], [128.83297928355336, 35.08867487926553], [128.83222038786852, 35.088472949180606], [128.824632256775, 35.09460375178684], [128.8228845651379, 35.09691695722724], [128.82276319531059, 35.09881611338609], [128.82393608882043, 35.10176771201704], [128.82481457361982, 35.10199377404097], [128.8318073434683, 35.10224893227019], [128.83458609355006, 35.10122088421881], [128.83665582079811, 35.10198775330213], [128.84208109428587, 35.107032098321795], [128.84320513180393, 35.10968851663921], [128.8429403905099, 35.11296974857826], [128.8413798367314, 35.11469055855565], [128.84019423805788, 35.115152418384405], [128.8385119844347, 35.11505457585183], [128.8375602842904, 35.11596659133489], [128.836254238939, 35.118644160298665], [128.83624333327998, 35.12268784726258], [128.83439583110464, 35.12630148921657], [128.83413746085253, 35.12843088252453], [128.83356802159656, 35.12918910076184], [128.83297943437026, 35.12964198585838], [128.83203152670478, 35.129530426169715], [128.83025883296403, 35.128281310349934], [128.82729490684417, 35.128175316557474], [128.8264575250699, 35.12949916707723], [128.82415671844794, 35.13044139954888], [128.81805226614065, 35.13237484849297], [128.81544724023152, 35.13256227459942], [128.8082895614055, 35.137875136222746], [128.80695315857352, 35.13925773254252], [128.8066351948314, 35.1409446646256], [128.80233454654334, 35.143152428306315], [128.8013292434723, 35.14674244358397], [128.79617207688645, 35.15255339287486], [128.79361802185085, 35.15705431613538], [128.79402273725665, 35.15793864075243], [128.79705087937813, 35.15870601184239], [128.79805148128054, 35.15789107428255], [128.8007395299092, 35.15796028946881], [128.8017997808973, 35.15851428521028], [128.80215787175047, 35.15935755012914], [128.8059586526544, 35.16049741031874], [128.8086300896849, 35.15899446221812], [128.81144159699525, 35.159970776641444], [128.8158643088159, 35.16037737884785], [128.8224694542267, 35.15736884777804], [128.8227751774597, 35.156515675205505], [128.82801308053266, 35.155757937371526], [128.8283845588824, 35.15652817715363], [128.8299928295354, 35.15715852965451], [128.83252595695203, 35.15690205846786], [128.83405641563576, 35.15735167941126], [128.83616143812304, 35.159065462354], [128.8374351032348, 35.15925224528541], [128.84335535111134, 35.157986475901104], [128.84455579100074, 35.160162388527006], [128.8445407973053, 35.16276895771322], [128.84666424832798, 35.16528233986758], [128.8605449565759, 35.167409693091756], [128.86368996789872, 35.16743410801996], [128.86611222841282, 35.16683920888041], [128.8654529447669, 35.15792088914184], [128.87045458723892, 35.15209644905948], [128.87479492546953, 35.151734583947565], [128.87579125486937, 35.15230881072213], [128.87476139220806, 35.15357074107621], [128.8739140301757, 35.15716001379724], [128.87448355663278, 35.159800008136614], [128.87791996245417, 35.16040896004733], [128.87925755731314, 35.16199323006961], [128.8760224038447, 35.16565285489807], [128.8763869576018, 35.167503476937014], [128.87577172430488, 35.170508609094654], [128.8723536579352, 35.172274289032615], [128.87361689499855, 35.17436394381475], [128.88019930669716, 35.17203049299251], [128.88009855302644, 35.17975846221294], [128.88163483428465, 35.18194579564133], [128.8815648181799, 35.18293809868363], [128.87602011690961, 35.188183468247566], [128.87619059757614, 35.19290817964182], [128.87038897776137, 35.20171224662657], [128.87543301164746, 35.20588594987278], [128.87905662643058, 35.20976298450512], [128.8817526952082, 35.21049538596638], [128.88381426237825, 35.212073772968346], [128.8841424777816, 35.21367929321098], [128.88642199605752, 35.214633001464875], [128.88751558892355, 35.21418798973344], [128.88912017823364, 35.21478451500707], [128.896597715058, 35.21310603590278], [128.90494283864686, 35.215344626997826], [128.9088764190504, 35.214790177679056], [128.91022909536053, 35.21501883745479], [128.90504598342622, 35.22007429742726], [128.90953104141997, 35.22308536415739], [128.910213261697, 35.222941880645514], [128.9087715205517, 35.22187813559975], [128.90889250040323, 35.22055873154542], [128.90995435987148, 35.22173235386436], [128.91029533752786, 35.22293372040214], [128.91238816085257, 35.22256299901473], [128.91663323994115, 35.21696396515944], [128.92348871431918, 35.21605396989045], [128.9368552523918, 35.22492818898322], [128.94101845603515, 35.22686541811864], [128.9448320866592, 35.22792179440606], [128.9502535768454, 35.22485447959614], [128.95246363516443, 35.22431789183465], [128.95947931357304, 35.225078072812025], [128.97056832668653, 35.227261682379435], [128.98002491008614, 35.228341710942885], [128.99310831871276, 35.232917256836494], [128.99554312774987, 35.23324968795548], [128.99760664208236, 35.23438729442228], [128.9958135167809, 35.207936038012726], [128.98928172982468, 35.20250427236374], [128.99178006158067, 35.20096171643757], [128.9866827003981, 35.196032872243855], [128.98206600494177, 35.19649959467477], [128.9655239786972, 35.186458450186386], [128.96201475096996, 35.18198125339427], [128.96264699361532, 35.172902798501966], [128.96242092421272, 35.16348948775276], [128.9595287363413, 35.14923637325416], [128.9614188668208, 35.13943999888083], [128.95687902012088, 35.12730608973392], [128.93903768106512, 35.112901215638175], [128.93685640338123, 35.109884367743234], [128.93290465491427, 35.11028433141648], [128.9286561600111, 35.099126289511766], [128.92535444740878, 35.093411534530844], [128.9219000256033, 35.092686270455275], [128.9121729069662, 35.089365281474244], [128.91217533550352, 35.07946303225213], [128.89532140440446, 35.07914157447694], [128.89537282596655, 35.08681985284577], [128.89776288765117, 35.09308426715531], [128.89939478993824, 35.09929160225298], [128.900959523367, 35.10797242377286], [128.9005511755282, 35.11114513978261], [128.9020934344399, 35.113693582668034], [128.9045540932235, 35.11564412384394], [128.9054627609308, 35.11805913018915], [128.90064416208733, 35.119256386360945], [128.90088033184452, 35.11822989387637], [128.89275116620817, 35.09436470172794], [128.88687840958738, 35.079109576392284], [128.88482394033005, 35.06353509740794], [128.88196559420194, 35.06005509004624], [128.87330867608273, 35.06155423147555], [128.86029846429136, 35.06837038699859], [128.85879602061198, 35.0697586196432], [128.8599817709457, 35.071315693974036], [128.86113183781694, 35.07129806055842], [128.86314298697116, 35.06979696664295], [128.87454771693734, 35.069733064750224], [128.87519298393707, 35.0793568770017], [128.8719511530955, 35.08047806394134], [128.83476246476482, 35.08024503937214], [128.83433362728888, 35.067995057607554]]]}}, {"type": "Feature", "id": 5, "properties": {"id": "geumjeong", "name": "Geumjeong-gu", "name_kr": "금정구", "tint": 2}, "geometry": {"type": "Polygon", "coordinates": [[[129.09399480101146, 35.214961450148934], [129.09238784394745, 35.21650163124502], [129.0883288479166, 35.217681819864815], [129.08655780409111, 35.21705278068723], [129.0849441794833, 35.2179222889511], [129.08726030886325, 35.221656807349376], [129.08508609182022, 35.22193056951878], [129.08191635633665, 35.22450954152046], [129.0806954070333, 35.223831458925645], [129.07749712487663, 35.22635084303023], [129.0715536002567, 35.22627084401822], [129.0688204752838, 35.22508350726713], [129.06653147811932, 35.225297039415], [129.06611254399343, 35.22687280304722], [129.0622247605961, 35.22682713936157], [129.06019953793606, 35.226222523215064], [129.0599741280662, 35.226789233938575], [129.06057262199613, 35.22847049124852], [129.05971076477323, 35.23002343231531], [129.0515895500284, 35.229648699027926], [129.04912036421635, 35.230865738425344], [129.04609125202282, 35.23131448893426], [129.0457434506553, 35.23334295187482], [129.04915549963502, 35.23802971527923], [129.04881477225084, 35.23847855902306], [129.04992167610965, 35.23897988548466], [129.051070947826, 35.24102008674408], [129.0496092363749, 35.24512957946922], [129.0482823840405, 35.246027215863954], [129.0460970367743, 35.246271916540394], [129.0455222494302, 35.247018017539546], [129.0454152960703, 35.252135943974984], [129.04700457565738, 35.254228686995944], [129.0485514320086, 35.25506816052614], [129.0477920449618, 35.25646127515616], [129.04673467740338, 35.257026622284506], [129.03765103622203, 35.25971868593309], [129.03609692814624, 35.259718460588694], [129.0377532167463, 35.26211965556639], [129.0415999361129, 35.26332996291464], [129.04213125428126, 35.26400846802992], [129.0425811218151, 35.26863911046401], [129.04687966452582, 35.273768146964635], [129.05094679853588, 35.28036041681356], [129.0499483244923, 35.28229804593501], [129.04991276854275, 35.28386243063585], [129.051862286997, 35.28795706060846], [129.06000113159632, 35.29548364806296], [129.0634537227937, 35.292400772517155], [129.06511496042341, 35.29150609986619], [129.0694355018217, 35.29006980095528], [129.0731730478537, 35.289942041962505], [129.08653156603387, 35.30147644577722], [129.0889496857838, 35.303068169663696], [129.09065286252923, 35.3035648840412], [129.09700000954916, 35.303539749677675], [129.10348480126805, 35.306139385288276], [129.10620555382917, 35.30620054090735], [129.11601776526172, 35.30218221244042], [129.1221996117302, 35.301502253458665], [129.1296640671979, 35.298002272297175], [129.12999509096898, 35.296628815389816], [129.12982913025536, 35.29033234100405], [129.12640585268923, 35.282999800521075], [129.12392570269233, 35.28040703340494], [129.12513646646565, 35.27840624844063], [129.12542570172567, 35.27672189588661], [129.12492930260498, 35.274629847017344], [129.12439252090897, 35.27332224473929], [129.12137055456571, 35.2695878031311], [129.11937556449044, 35.262091814795056], [129.12008273243816, 35.26031155040715], [129.1224637721463, 35.26153233707611], [129.1260057101869, 35.2619048939383], [129.13020504703502, 35.26005010839832], [129.13642782163583, 35.259428267088225], [129.13940459689405, 35.26035272353695], [129.1408600692582, 35.26017905792926], [129.14112584754795, 35.259433376603134], [129.13923516551816, 35.25415543112417], [129.14428701915543, 35.25072721185762], [129.14432028323984, 35.2499125574283], [129.14361404657424, 35.24868908515952], [129.14376194322003, 35.24685794126952], [129.14129401985372, 35.24415578503574], [129.14160130014352, 35.24259419452393], [129.14125331849, 35.24188826906887], [129.13728158091064, 35.23846698457584], [129.13585279181572, 35.23654056235279], [129.1344567230455, 35.236829424078394], [129.1309907644054, 35.23524002956223], [129.13022787049496, 35.23327010358183], [129.13056186522633, 35.23126390063014], [129.1271824593931, 35.227681267802915], [129.1258440705305, 35.22694133230776], [129.12367577362005, 35.22710663725112], [129.11896114224695, 35.22483532157928], [129.1180832474061, 35.22389640367006], [129.11734727780495, 35.222446015674336], [129.1172960965337, 35.22047473229355], [129.11908287723043, 35.214590526895776], [129.11891004939335, 35.21363658538755], [129.116538080089, 35.21392084132355], [129.1134495069031, 35.21294038318517], [129.11116166947295, 35.211689424583234], [129.11004041344015, 35.210114243992706], [129.1063593105263, 35.20959120275214], [129.10232916060872, 35.21134512295701], [129.1025243550962, 35.212202122619495], [129.1018710391907, 35.21254637842011], [129.09563465939607, 35.21453932852696], [129.0943588901752, 35.21543237203513], [129.09399480101146, 35.214961450148934]]]}}, {"type": "Feature", "id": 6, "properties": {"id": "gijang", "name": "Gijang-gun", "name_kr": "기장군", "tint": 0}, "geometry": {"type": "Polygon", "coordinates": [[[129.25337576324543, 35.24666823722878], [129.25185314205436, 35.24462439862666], [129.248284861805, 35.24331056908489], [129.24803184362912, 35.24177645865111], [129.2485604303096, 35.2399547116569], [129.2457446471245, 35.23707338814666], [129.24510790752163, 35.23497127743591], [129.24573893360193, 35.23113734836924], [129.24545697683118, 35.23045233409942], [129.24168042504817, 35.22896923285897], [129.2410747002677, 35.227988195163704], [129.24234194474556, 35.22623907430218], [129.23892287575103, 35.22052141768926], [129.23584348219362, 35.21949979813759], [129.23123359376578, 35.2206778755276], [129.2305396156465, 35.221634667941345], [129.2284587450895, 35.2207144442862], [129.22852620537046, 35.2193326787483], [129.2307335042802, 35.219248887083346], [129.2332332279117, 35.21447461013801], [129.23006077843533, 35.20426539757562], [129.23182536108044, 35.20147183985177], [129.23015233418576, 35.19572537761114], [129.2273106452157, 35.19269847114454], [129.22573360027178, 35.19186680950439], [129.22381723034465, 35.18998942498936], [129.22503788584214, 35.186301234060316], [129.2247504041364, 35.1857327382342], [129.2218331623288, 35.184192474965606], [129.22026328395893, 35.18361559249503], [129.21933468323587, 35.183760122166355], [129.2181231090551, 35.18492985587415], [129.217772822997, 35.18633882817605], [129.21467019152536, 35.18655496649767], [129.21336266847138, 35.18562258886596], [129.21393052928497, 35.18507030059377], [129.21390979669724, 35.184305653951235], [129.2128068196733, 35.180883149494484], [129.2108469565905, 35.18168396837589], [129.21082883448267, 35.18244933205326], [129.20792222656215, 35.181944959030275], [129.20689238417373, 35.18587087707533], [129.20631738263685, 35.19127882044517], [129.20744897908023, 35.19455919636432], [129.20666744753996, 35.1970539561058], [129.1994508641014, 35.200687350789146], [129.19767421340543, 35.2006221092074], [129.1946963944294, 35.19896085328916], [129.19385862770395, 35.19810861708671], [129.19351988964092, 35.1950698592317], [129.19081052450375, 35.19291493859557], [129.18904466404177, 35.189957613882044], [129.1881888766853, 35.18933556689751], [129.1837791328208, 35.189719930277654], [129.1833225600009, 35.19072035829852], [129.18564304115662, 35.19548668493235], [129.18262012826793, 35.19798385738416], [129.1796338664037, 35.19790014190234], [129.1724720972387, 35.20202302077535], [129.16936951017513, 35.200984167907514], [129.16504002215248, 35.20311132372167], [129.16425470000857, 35.20484780629061], [129.1629818543271, 35.2059722073783], [129.16026027283183, 35.20629311485381], [129.15975925916305, 35.20969256606286], [129.16045481295413, 35.21183722750348], [129.16203139313677, 35.21256264896425], [129.16474023869512, 35.214936315012125], [129.1662144143843, 35.21846920908729], [129.16640185179898, 35.22083683167936], [129.16951380195485, 35.22608876050923], [129.16926998030365, 35.22766874417913], [129.16734760118234, 35.229677721426185], [129.16163548896114, 35.23393790292121], [129.15794728542687, 35.23534553754519], [129.15513091694905, 35.237010450810004], [129.15569070203927, 35.24327102192388], [129.15496231726954, 35.24505499361861], [129.1499596651317, 35.24761368700551], [129.14811870309077, 35.247270347106166], [129.1468404501671, 35.24939928671586], [129.13923516551816, 35.25415543112417], [129.14112584754795, 35.259433376603134], [129.1408600692582, 35.26017905792926], [129.13940459689405, 35.26035272353695], [129.13642782163583, 35.259428267088225], [129.13020504703502, 35.26005010839832], [129.1260057101869, 35.2619048939383], [129.1224637721463, 35.26153233707611], [129.12008273243816, 35.26031155040715], [129.1193757241296, 35.2621990470576], [129.12137055456571, 35.2695878031311], [129.12439252090897, 35.27332224473929], [129.12542570172567, 35.27672189588661], [129.12513646646565, 35.27840624844063], [129.12392570269233, 35.28040703340494], [129.12640585268923, 35.282999800521075], [129.12982913025536, 35.29033234100405], [129.1298754556232, 35.29758846423574], [129.1221996117302, 35.301502253458665], [129.11601776526172, 35.30218221244042], [129.1089184004478, 35.305068397078145], [129.11097579776109, 35.30661032919353], [129.11164595207669, 35.308769606804574], [129.1120806307746, 35.31615254576094], [129.11330955232535, 35.319495162603836], [129.11847606676884, 35.32246347291058], [129.11933292847897, 35.323822747495846], [129.12087486299632, 35.32891818019737], [129.12467065518163, 35.33073395154139], [129.1259959011558, 35.33221770413539], [129.12621344579614, 35.333732298202854], [129.12503250832583, 35.33630276764012], [129.12604157271775, 35.34132511561375], [129.1283373748687, 35.34321253704454], [129.1272707899206, 35.345044049822675], [129.1273691961121, 35.345671406633464], [129.12965567375034, 35.34873575262079], [129.13326725520682, 35.350001630249764], [129.1345724702276, 35.35141106740709], [129.13471015502867, 35.35306295888203], [129.13195701874554, 35.35716189705289], [129.12956356985066, 35.35916489150046], [129.13058923361965, 35.36429814923641], [129.13129677084333, 35.36556110832586], [129.13850643374843, 35.366081478253086], [129.14141914497264, 35.36494660986696], [129.14634788909308, 35.36388468971426], [129.14836291938568, 35.36416552611346], [129.14987598922698, 35.363840816852694], [129.15308899095132, 35.36254045364098], [129.15415347891644, 35.360805630631944], [129.1572530695011, 35.35900362799002], [129.16178733109066, 35.358784137752956], [129.1623925114315, 35.35804822071152], [129.1621627033034, 35.35687632194059], [129.16255296880328, 35.356364200393614], [129.16745889906628, 35.35405784840856], [129.17453350862533, 35.35146553499884], [129.1778859196146, 35.35140951426014], [129.18162821210694, 35.353650880617565], [129.182278768853, 35.35518018522007], [129.18558363506247, 35.358174568043474], [129.18947875859308, 35.35976167094222], [129.19035765768228, 35.35948687448637], [129.19358066827675, 35.36100526803991], [129.19809249227688, 35.36921553472803], [129.19937257235028, 35.3756227630269], [129.19867710591515, 35.37703730904557], [129.19581986084575, 35.37982193179194], [129.19452457499438, 35.380389574583006], [129.19372060594884, 35.38204601664023], [129.1945080609123, 35.38374859783469], [129.2005262441342, 35.38866596354607], [129.20287457373115, 35.387983865034386], [129.2033959549884, 35.38515371996671], [129.2087084758063, 35.38117127544707], [129.21772140923156, 35.37867306903836], [129.22267108895582, 35.379407415893716], [129.2311959140502, 35.38161490140744], [129.23563579756603, 35.380307717934315], [129.23669419295197, 35.382265142869905], [129.241643078168, 35.38569793959929], [129.24735996356802, 35.38473782192817], [129.24920193352534, 35.38348822969169], [129.25039156148497, 35.38375884545871], [129.2511959790786, 35.38572335541012], [129.2509073016447, 35.38679911262726], [129.25200357605692, 35.38721497510539], [129.254514532656, 35.38647588615317], [129.25508512168534, 35.38552753250199], [129.25663110099802, 35.38478997353123], [129.25994679161138, 35.38464046966929], [129.26527076472655, 35.38647176283808], [129.26826914763018, 35.379906149134506], [129.2715828676475, 35.37784504549223], [129.27671199554348, 35.37240123489038], [129.27971044445923, 35.36578301657528], [129.28318077509877, 35.36522513001945], [129.28350875658538, 35.36271420228059], [129.28098594219477, 35.36047767101272], [129.28057117776203, 35.35610662663763], [129.28447656478127, 35.352270059450795], [129.28456249504035, 35.35075587089275], [129.283767706476, 35.34567863307003], [129.2818811308656, 35.342975396729614], [129.2798561764195, 35.341514353807554], [129.28245825722604, 35.339799862905615], [129.2854979915518, 35.33920461788381], [129.28660067752443, 35.339973965476645], [129.28936231055442, 35.34014424680472], [129.290891493882, 35.33865667186573], [129.29206012488774, 35.33653753999357], [129.29317930497774, 35.33594681619926], [129.297704848088, 35.33553116371195], [129.30087518247925, 35.334243671156486], [129.30336082386629, 35.33166504327292], [129.3045309283998, 35.32951391038803], [129.3035866852017, 35.329478153666905], [129.30229451177811, 35.3283068367152], [129.30042099596926, 35.32261025497124], [129.30265183212205, 35.321371878147374], [129.29903916620975, 35.31826517729175], [129.29064537668606, 35.31879561614772], [129.28967060537943, 35.31815424049438], [129.288675718037, 35.3185854631096], [129.28651013730413, 35.320358483090736], [129.28769084456485, 35.32116093406102], [129.2879502101082, 35.32321798569462], [129.28474248588822, 35.32373223499026], [129.2844638494272, 35.32637684422462], [129.28185130949086, 35.3265911285792], [129.27713474958745, 35.325401612673964], [129.27756806973872, 35.32469238201084], [129.27400347410006, 35.32327485218397], [129.27121926130476, 35.32274982095859], [129.26527656158805, 35.31910848413057], [129.26295449610078, 35.31515880664624], [129.2617626474179, 35.30939103645163], [129.26139412544342, 35.309542964026186], [129.25855952233442, 35.30603370752106], [129.26140328947906, 35.29750258851639], [129.26213098086535, 35.29764113912545], [129.26326444568824, 35.299082319375174], [129.26413076745183, 35.298842548770175], [129.26374044657584, 35.296059368603245], [129.26186273947522, 35.29371323266501], [129.26135585882778, 35.29057738025125], [129.25753026312086, 35.28758269237369], [129.26028288492404, 35.28274115583782], [129.26047307465416, 35.28139070495384], [129.25880653663472, 35.28019063986813], [129.25658283888268, 35.280098302001925], [129.2557355148967, 35.27898996840061], [129.2553608760819, 35.27607955730518], [129.2558661347657, 35.27545452936356], [129.2554721896837, 35.274203915430256], [129.25290604275267, 35.271173727395855], [129.25125833795332, 35.27064234168834], [129.25033978699176, 35.27167649321139], [129.24650306845552, 35.2725592315576], [129.24466969979184, 35.27161187159036], [129.24380648057831, 35.26952235181062], [129.24452260053792, 35.267856788650484], [129.24424241219822, 35.26638097172941], [129.2430999495172, 35.26363641431183], [129.24288105771697, 35.264511069388526], [129.24167669483884, 35.26499713462495], [129.2361217448025, 35.264726882636374], [129.23409245511652, 35.26239017756238], [129.23395436167215, 35.26092282580709], [129.23449775104808, 35.25933597711529], [129.23544980330215, 35.2583830002587], [129.23950154096718, 35.25750631662866], [129.24420659082318, 35.26022535916653], [129.24784404847935, 35.25964383766041], [129.2519668852276, 35.260214844769564], [129.25263428468577, 35.25958774569401], [129.2535677008816, 35.25679090481864], [129.2521419964377, 35.25593550583784], [129.25202426085662, 35.25521609757528], [129.25335886393606, 35.25017481443241], [129.25337576324543, 35.24666823722878]]]}}, {"type": "Feature", "id": 7, "properties": {"id": "haeundae", "name": "Haeundae-gu", "name_kr": "해운대구", "tint": 3}, "geometry": {"type": "Polygon", "coordinates": [[[129.14766653995738, 35.15576371645937], [129.14709408834793, 35.15347319513496], [129.1463709897158, 35.15336769252019], [129.14230157127926, 35.15445204234328], [129.1414050708729, 35.155059500294925], [129.14044939922914, 35.15707469529646], [129.1357397370835, 35.16123332948396], [129.13408161895987, 35.162168352300576], [129.13691281682534, 35.15770738714258], [129.13735844840832, 35.1556643436053], [129.13650135985554, 35.15375586288658], [129.1307458582595, 35.14771373119066], [129.1303239315999, 35.147985067951566], [129.13622833228956, 35.154344342809694], [129.13666352339698, 35.15673118021629], [129.1329182047037, 35.161915390998345], [129.13245262337935, 35.16170765797513], [129.13095017811176, 35.16328892553498], [129.1265833212837, 35.16602617330569], [129.12317120085623, 35.171051876632454], [129.12249905533562, 35.1730217184355], [129.119258917037, 35.176751106648815], [129.1184497281304, 35.18178225401597], [129.11551643510097, 35.18783048750806], [129.11419861514014, 35.193087787710915], [129.1145499648315, 35.1966410351114], [129.1163781122603, 35.2010936506585], [129.11505869894745, 35.20176739610063], [129.1137764384947, 35.20176638745594], [129.11138457166993, 35.20386730951491], [129.11016251502542, 35.2070585547554], [129.10987451868468, 35.20967354306937], [129.11032400973258, 35.210977461790804], [129.1134495069031, 35.21294038318517], [129.116538080089, 35.21392084132355], [129.11891004939335, 35.21363658538755], [129.11908287723043, 35.214590526895776], [129.1172960965337, 35.22047473229355], [129.11734727780495, 35.222446015674336], [129.1180832474061, 35.22389640367006], [129.11896114224695, 35.22483532157928], [129.12367577362005, 35.22710663725112], [129.1258440705305, 35.22694133230776], [129.1271824593931, 35.227681267802915], [129.13056186522633, 35.23126390063014], [129.13022787049496, 35.23327010358183], [129.1309907644054, 35.23524002956223], [129.1344567230455, 35.236829424078394], [129.13585279181572, 35.23654056235279], [129.13728158091064, 35.23846698457584], [129.14125331849, 35.24188826906887], [129.14160130014352, 35.24259419452393], [129.14129401985372, 35.24415578503574], [129.14376194322003, 35.24685794126952], [129.14361404657424, 35.24868908515952], [129.14428701915543, 35.25072721185762], [129.1468404501671, 35.24939928671586], [129.14811870309077, 35.247270347106166], [129.1499596651317, 35.24761368700551], [129.15496231726954, 35.24505499361861], [129.15569070203927, 35.24327102192388], [129.15513091694905, 35.237010450810004], [129.15794728542687, 35.23534553754519], [129.16163548896114, 35.23393790292121], [129.16734760118234, 35.229677721426185], [129.16926998030365, 35.22766874417913], [129.16951380195485, 35.22608876050923], [129.16640185179898, 35.22083683167936], [129.1662144143843, 35.21846920908729], [129.16474023869512, 35.214936315012125], [129.16203139313677, 35.21256264896425], [129.16045481295413, 35.21183722750348], [129.15975925916305, 35.20969256606286], [129.16026027283183, 35.20629311485381], [129.1629818543271, 35.2059722073783], [129.16425470000857, 35.20484780629061], [129.16504002215248, 35.20311132372167], [129.16936951017513, 35.200984167907514], [129.1724720972387, 35.20202302077535], [129.1796338664037, 35.19790014190234], [129.18262012826793, 35.19798385738416], [129.18564304115662, 35.19548668493235], [129.1833225600009, 35.19072035829852], [129.1837791328208, 35.189719930277654], [129.1881888766853, 35.18933556689751], [129.18904466404177, 35.189957613882044], [129.19081052450375, 35.19291493859557], [129.19351988964092, 35.1950698592317], [129.19385862770395, 35.19810861708671], [129.19687434366918, 35.20032305102213], [129.1994508641014, 35.200687350789146], [129.20426157246294, 35.19832982703446], [129.20666744753996, 35.1970539561058], [129.20744897908023, 35.19455919636432], [129.20631738263685, 35.19127882044517], [129.20689238417373, 35.18587087707533], [129.20792222656215, 35.181944959030275], [129.20733453321046, 35.18006899309412], [129.2056723429685, 35.179114296643114], [129.2049426284505, 35.179054516669446], [129.20452635768018, 35.18063314827474], [129.2027287658894, 35.18046330080016], [129.19967833849012, 35.17907702843201], [129.1980396237448, 35.177179834948085], [129.19739014039888, 35.175884229128044], [129.19807285334952, 35.17333925053678], [129.19745447265225, 35.168743786154145], [129.19606712547846, 35.1650197399687], [129.19619529205843, 35.164267341736476], [129.1941222642016, 35.16108144793322], [129.1922883719064, 35.15984173384553], [129.19112413788474, 35.16011203517919], [129.18778998694853, 35.159715611414], [129.18600158988608, 35.15895565918545], [129.1846737503933, 35.156757798006716], [129.18222849558975, 35.15511681166891], [129.18064441528435, 35.15469135243845], [129.17769910904642, 35.15489170375136], [129.17338519452414, 35.156853719675894], [129.169807991037, 35.159164636215806], [129.168566698037, 35.159424522046145], [129.16158377528083, 35.15879189015851], [129.1556864056299, 35.157008808019846], [129.15489354677047, 35.156558205182215], [129.15496754108474, 35.1548636037327], [129.154021297688, 35.15443370365971], [129.15265678111504, 35.151764501346285], [129.15029090596084, 35.151836690960884], [129.14990933958478, 35.15270646098666], [129.15112412731435, 35.15652301790449], [129.1527871550036, 35.15735199105734], [129.14838817780628, 35.15642139774996], [129.14766653995738, 35.15576371645937]]]}}, {"type": "Feature", "id": 8, "properties": {"id": "jung", "name": "Jung-gu", "name_kr": "중구", "tint": 2}, "geometry": {"type": "Polygon", "coordinates": [[[129.03692475467798, 35.09472353010395], [129.03605078546966, 35.09636390192045], [129.03375145303252, 35.09695207958799], [129.02621094402838, 35.09567902315304], [129.02423299894602, 35.10007900902958], [129.02155015581673, 35.101912113158015], [129.0212269833295, 35.10330608027158], [129.02293330437362, 35.10897200871046], [129.02644134577582, 35.111093305925095], [129.0270478270189, 35.11049540178221], [129.0284378860708, 35.11267891081947], [129.02817876343198, 35.11567353238125], [129.02693127888296, 35.115945906162004], [129.02613312823212, 35.116777714805856], [129.028223563291, 35.11733520105265], [129.032649785004, 35.115987180639884], [129.03820311018, 35.11200440879226], [129.0427298111509, 35.110722158835344], [129.04088010913745, 35.10811134155702], [129.0445525636584, 35.10580584261088], [129.04373774886275, 35.10492439441351], [129.04036624750276, 35.10703056658817], [129.0398182034819, 35.10584181288945], [129.04367586047277, 35.103410637547064], [129.04224004979767, 35.10191413106284], [129.03886909859048, 35.10355492774449], [129.03967360893532, 35.104392862686176], [129.03822575608223, 35.104347901569604], [129.03809601149175, 35.098007183934655], [129.0395042524266, 35.095225179067526], [129.0382160754761, 35.09700868573582], [129.03631505397712, 35.09642289270006], [129.03692475467798, 35.09472353010395]]]}}, {"type": "Feature", "id": 9, "properties": {"id": "nam", "name": "Nam-gu", "name_kr": "남구", "tint": 4}, "geometry": {"type": "Polygon", "coordinates": [[[129.0875861941577, 35.10358801735162], [129.07491424348004, 35.103577800926104], [129.06719791808808, 35.10769398081242], [129.06989256467304, 35.11384117952146], [129.07377788419188, 35.11674639795173], [129.07324736862296, 35.11813584221814], [129.07226637656782, 35.118728318226005], [129.07101308202905, 35.117375894054085], [129.0694962264335, 35.118295271496386], [129.07299837711597, 35.12217114825165], [129.06997938936243, 35.123132632046946], [129.0686640114218, 35.1216831968647], [129.06533904852375, 35.12289313843005], [129.0667823415887, 35.125889712260715], [129.06529893880335, 35.12962310748651], [129.06609470918582, 35.136977523857595], [129.06448312933315, 35.141392386501934], [129.06319730675162, 35.143558435524035], [129.06312487819224, 35.14818479649963], [129.0633341325516, 35.14869346032266], [129.06677015286203, 35.14778494550463], [129.07134350926506, 35.14877766571594], [129.0798726982041, 35.15269661804671], [129.08293072250794, 35.15823841213367], [129.0893935190093, 35.160809261946916], [129.09276629017978, 35.16031717781803], [129.09482351648995, 35.16174060161668], [129.0982340519225, 35.155340560923136], [129.1016414105136, 35.15069354668656], [129.10334244447125, 35.145764043385824], [129.10341169818932, 35.144359311918144], [129.10231680476866, 35.1428026922264], [129.10333258602046, 35.14164053539615], [129.11134071192728, 35.13567620114638], [129.11689253565845, 35.13286308113602], [129.11521098936876, 35.1309659814048], [129.1166465768182, 35.13014169384774], [129.12061039938683, 35.133949727165444], [129.12107501989738, 35.133274051002275], [129.12286900855557, 35.1262912195908], [129.1249448234254, 35.12217264776362], [129.12702722519055, 35.11981432205294], [129.1272397714773, 35.11430003931371], [129.12792576147265, 35.11024179746965], [129.1237438247094, 35.10195065607857], [129.1251759332394, 35.10069772969181], [129.12349589161863, 35.098860334091654], [129.11571785986513, 35.10013642359432], [129.11294935435782, 35.10298579875152], [129.1105288462438, 35.10110474001168], [129.10879098637042, 35.10233076859715], [129.10423329981722, 35.09863848720758], [129.09953292483613, 35.09822774743448], [129.09755709483372, 35.09931701992266], [129.09459587195863, 35.099125531158975], [129.093735124042, 35.107534274135254], [129.09181331926223, 35.10779364320242], [129.08737886663224, 35.1071387424623], [129.0875861941577, 35.10358801735162]]]}}, {"type": "Feature", "id": 10, "properties": {"id": "saha", "name": "Saha-gu", "name_kr": "사하구", "tint": 3}, "geometry": {"type": "MultiPolygon", "coordinates": [[[[128.96860411950763, 35.0305836335396], [128.9714062884404, 35.034494113563234], [128.97276455594687, 35.03468573613845], [128.9735697326326, 35.03397653677524], [128.97383688374913, 35.032948815987254], [128.97284049544044, 35.03107786566937], [128.9726613699132, 35.029657264705236], [128.97108542006168, 35.02932682058216], [128.96872008287275, 35.02985466307777], [128.96860411950763, 35.0305836335396]]], [[[128.9744081971428, 35.043640597772516], [128.97214807559467, 35.04528355836991], [128.97214482038692, 35.0460864282376], [128.9733191528833, 35.04622782498569], [128.97501584653108, 35.04568851782418], [128.97655714430533, 35.04415646849254], [128.97598397899372, 35.04326512443609], [128.9744081971428, 35.043640597772516]]], [[[128.97733630570067, 35.055408473242096], [128.97593802527294, 35.05551548108307], [128.97531408989119, 35.05656441268639], [128.97279707324896, 35.05663222792713], [128.97239209730512, 35.05440528505178], [128.97393547835182, 35.05322909909122], [128.98004886583237, 35.05312951308005], [128.9826508395401, 35.05193594330406], [128.9821400319223, 35.0477610653449], [128.97587906890703, 35.047956077656266], [128.97311070268645, 35.04909725579701], [128.96958220800866, 35.04747089286919], [128.96911458632493, 35.04621572401607], [128.96960729095622, 35.044983400607784], [128.97291460652397, 35.04347498497943], [128.9699304948433, 35.04042009759499], [128.97260830834549, 35.04039997614567], [128.97110067335865, 35.03825743794867], [128.96754234723892, 35.0364524564427], [128.96696702745456, 35.03327502989931], [128.9656766475302, 35.032636689770484], [128.964619494733, 35.03392889891466], [128.9626479687144, 35.038533811967014], [128.9644684095756, 35.04228658393903], [128.96450499177186, 35.046210686959256], [128.96207243243157, 35.04736827839425], [128.95922338678434, 35.0473183452424], [128.958348551403, 35.04795944772298], [128.9558950174769, 35.05242797328089], [128.9556863535575, 35.05309567447595], [128.95688712765832, 35.05447882920614], [128.95090449520768, 35.078017227783455], [128.93851606290053, 35.07810166840806], [128.92535444740878, 35.093411534530844], [128.9286561600111, 35.099126289511766], [128.93290465491427, 35.11028433141648], [128.93685640338123, 35.109884367743234], [128.93903768106512, 35.112901215638175], [128.95687902012088, 35.12730608973392], [128.9582558418523, 35.123086602851465], [128.95990797566617, 35.12027791220839], [128.9615002451909, 35.119911661728935], [128.96314635016054, 35.12015636125777], [128.96371102885962, 35.12172427155548], [128.9688955643479, 35.120917048736004], [128.9763030133134, 35.11679803637953], [128.97982418517978, 35.1167540714929], [128.98152764638243, 35.118107061820275], [128.9818915032444, 35.1193639089219], [128.98673530902727, 35.12313275534386], [128.98768908147932, 35.12492769978295], [128.9902410767688, 35.12358687791466], [128.99796856024992, 35.12254815787114], [129.0005108766161, 35.120201283690506], [129.0001455828842, 35.1183844090923], [129.00116361732503, 35.11422631698106], [129.00308758969084, 35.11409292109216], [129.0038037129357, 35.11324993412614], [129.00327423016125, 35.11180892870074], [129.00371121474373, 35.11067010633896], [129.00628224186983, 35.10946941892566], [129.01051364927392, 35.10559260281932], [129.007432619249, 35.101829096156784], [129.00674859070077, 35.09909330667264], [129.01025765278888, 35.09928147664126], [129.01430048622598, 35.09318594727336], [129.01401555533775, 35.08918965700408], [129.013174404632, 35.08809081487248], [129.01163096171894, 35.08155531126193], [129.01131551486193, 35.0768630046373], [129.00834753889856, 35.07824138898025], [129.0044408963209, 35.0784448629278], [129.00393177878968, 35.081289913932224], [129.0051454785631, 35.084397733465494], [129.00270988293443, 35.0846783191387], [128.99915868116992, 35.083320692223836], [128.99977203532492, 35.08172216554028], [129.0017869184084, 35.0812296454162], [129.0015339622394, 35.08041089923636], [128.9986252810761, 35.0805545382931], [128.99798140643094, 35.08082757863427], [128.9971763716535, 35.08302815557717], [128.99311906615398, 35.08386999399523], [128.99272507217705, 35.08013933896701], [128.99509554162407, 35.07568697841482], [128.99502999518967, 35.0745422278336], [128.99372999655458, 35.07378939939684], [128.9943879792513, 35.07139402649701], [128.99536691327228, 35.07134695985432], [128.99532664990102, 35.06349414343609], [129.00129603740098, 35.048215040820686], [128.99975624853388, 35.047865698242646], [128.99902395380403, 35.048813936198776], [128.99442454631784, 35.048119573234835], [128.99027743067396, 35.04908470769659], [128.98980836207795, 35.050518476715304], [128.99006292537462, 35.05256657834386], [128.9905068495045, 35.052917107819106], [128.98815673178723, 35.05797245321205], [128.98455919395383, 35.05969255961449], [128.97755604184255, 35.056918918708284], [128.97733630570067, 35.055408473242096]]]]}}, {"type": "Feature", "id": 11, "properties": {"id": "sasang", "name": "Sasang-gu", "name_kr": "사상구", "tint": 2}, "geometry": {"type": "Polygon", "coordinates": [[[128.98735689785522, 35.12389853747528], [128.9818915032444, 35.1193639089219], [128.98152764638243, 35.118107061820275], [128.97982418517978, 35.1167540714929], [128.9763030133134, 35.11679803637953], [128.9688955643479, 35.120917048736004], [128.96371102885962, 35.12172427155548], [128.96314635016054, 35.12015636125777], [128.9615002451909, 35.119911661728935], [128.95990797566617, 35.12027791220839], [128.9582558418523, 35.123086602851465], [128.95687902012088, 35.12730608973392], [128.9614188668208, 35.13943999888083], [128.9595287363413, 35.14923637325416], [128.96242092421272, 35.16348948775276], [128.96264699361532, 35.172902798501966], [128.96201475096996, 35.18198125339427], [128.9655239786972, 35.186458450186386], [128.98206600494177, 35.19649959467477], [128.9866827003981, 35.196032872243855], [128.98818504717465, 35.1972385175836], [128.987946053341, 35.1959047485512], [128.99111562695626, 35.19382240168314], [128.99391935025963, 35.19526147965966], [128.9982073183999, 35.19230153181104], [129.00060713934948, 35.191662898355], [129.00171348937323, 35.19280614737444], [129.00769630669944, 35.19249831429592], [129.00720712199106, 35.19045186348398], [129.0082600286448, 35.18900748332719], [129.01599056537117, 35.18930747563812], [129.01937893982827, 35.18777817432737], [129.02114382379534, 35.18775116756243], [129.02174892241595, 35.18351552150814], [129.0238044237239, 35.183040099717886], [129.0235620302322, 35.18074137166615], [129.02149994647763, 35.178319704998216], [129.01952145131978, 35.179856428792796], [129.017860201483, 35.17932587505382], [129.01138299083289, 35.17411431954438], [129.01017323862936, 35.17360665196827], [129.01009003820303, 35.17035940934349], [129.01170244925513, 35.16880581176889], [129.01169902395307, 35.167375199074904], [129.01284353539765, 35.165674161546214], [129.01102514991956, 35.162724140046876], [129.0106414375882, 35.160154222405225], [129.01481819935537, 35.157105893045205], [129.01594406761035, 35.155712026344524], [129.01648758355864, 35.15406380193008], [129.01619424245249, 35.148249576671134], [129.01567789151815, 35.14692635804637], [129.01614903457846, 35.142240310374774], [129.01229207423216, 35.13830332870011], [129.00451760683498, 35.1395132926308], [129.0029509525376, 35.13492983407354], [129.0022473982334, 35.12742898655021], [129.00160075083318, 35.12650059096157], [128.99960902451832, 35.12585049850774], [128.9984364338778, 35.12467467385807], [128.99796856024992, 35.12254815787114], [128.9902410767688, 35.12358687791466], [128.98768908147932, 35.12492769978295], [128.98735689785522, 35.12389853747528]]]}}, {"type": "Feature", "id": 12, "properties": {"id": "seo", "name": "Seo-gu", "name_kr": "서구", "tint": 4}, "geometry": {"type": "MultiPolygon", "coordinates": [[[[129.0158056817169, 35.046826176056555], [129.013715890268, 35.04788864648471], [129.01391158412605, 35.04995211076924], [129.014394833089, 35.05035024755789], [129.0157393886407, 35.04934813947908], [129.0159158063969, 35.04827875186748], [129.01546508171913, 35.04769292376592], [129.01609068769687, 35.04735573185723], [129.0158056817169, 35.046826176056555]]], [[[129.02459226925455, 35.07608456621619], [129.0219606013233, 35.07498738779311], [129.02149569719336, 35.07719394306622], [129.0204178456254, 35.07766756314218], [129.0178398341173, 35.076750344186514], [129.01597168618292, 35.0745527620154], [129.01716981602112, 35.072138886186714], [129.02092196177423, 35.06891649614125], [129.02227748343276, 35.06234094564348], [129.02171700709135, 35.060796863905125], [129.0159003003887, 35.056928285842005], [129.01547463516232, 35.05478917973837], [129.0160678655245, 35.0546362367447], [129.01625122834935, 35.053999552974496], [129.0153214749445, 35.052604651022016], [129.00851006022566, 35.05054995192165], [129.01006018126012, 35.05152711555845], [129.01063210726338, 35.052449461282364], [129.0083763782547, 35.062803688603935], [129.0114791873151, 35.063145725374966], [129.0119790837457, 35.06486400248598], [129.00937487935263, 35.065953603185335], [129.00551501021766, 35.07110188491043], [129.0044408963209, 35.0784448629278], [129.00834753889856, 35.07824138898025], [129.01131551486193, 35.0768630046373], [129.01163096171894, 35.08155531126193], [129.01442092933448, 35.09148981843454], [129.01414929289174, 35.09366496277644], [129.01025765278888, 35.09928147664126], [129.00674859070077, 35.09909330667264], [129.007432619249, 35.101829096156784], [129.01051364927392, 35.10559260281932], [129.00628224186983, 35.10946941892566], [129.00371121474373, 35.11067010633896], [129.00327423016125, 35.11180892870074], [129.0038037129357, 35.11324993412614], [129.00308758969084, 35.11409292109216], [129.00116361732503, 35.11422631698106], [129.0001455828842, 35.1183844090923], [129.0005108766161, 35.120201283690506], [128.99796856024992, 35.12254815787114], [128.9984364338778, 35.12467467385807], [128.99960902451832, 35.12585049850774], [129.00160075083318, 35.12650059096157], [129.0022473982334, 35.12742898655021], [129.0029509525376, 35.13492983407354], [129.00451760683498, 35.1395132926308], [129.01132236660203, 35.138189122925816], [129.01708845374898, 35.1360213201635], [129.0208129052661, 35.13684964740355], [129.0241203041084, 35.13402281469793], [129.02566114046175, 35.130769887667306], [129.025982457292, 35.128262237984224], [129.0253764415973, 35.121960722952025], [129.02459285799694, 35.11870699558109], [129.02693127888296, 35.115945906162004], [129.02817876343198, 35.11567353238125], [129.028482927075, 35.112986806103294], [129.02779341053562, 35.111121869158644], [129.0270478270189, 35.11049540178221], [129.02644134577582, 35.111093305925095], [129.02293330437362, 35.10897200871046], [129.0212269833295, 35.10330608027158], [129.02155015581673, 35.101912113158015], [129.02423299894602, 35.10007900902958], [129.02621094402838, 35.09567902315304], [129.02525511343853, 35.0934965479213], [129.0260521352617, 35.08684563673083], [129.02664476002246, 35.08530113217267], [129.02459226925455, 35.07608456621619]]]]}}, {"type": "Feature", "id": 13, "properties": {"id": "suyeong", "name": "Suyeong-gu", "name_kr": "수영구", "tint": 1}, "geometry": {"type": "Polygon", "coordinates": [[[129.11361272229686, 35.13756429320404], [129.11457141969717, 35.13838862038423], [129.11430412470793, 35.13859013247198], [129.11199066268026, 35.13637543325397], [129.11842056766713, 35.13705605652741], [129.11998286513546, 35.13765895881032], [129.1303239315999, 35.147985067951566], [129.1307458582595, 35.14771373119066], [129.12098324072193, 35.13772493745789], [129.11971288707988, 35.136936013186194], [129.11134071192728, 35.13567620114638], [129.1048844310384, 35.14020888216203], [129.10231680476866, 35.1428026922264], [129.10341169818932, 35.144359311918144], [129.10334244447125, 35.145764043385824], [129.1016414105136, 35.15069354668656], [129.0981159256268, 35.15553518037132], [129.09231959764134, 35.16616723541153], [129.09473477164147, 35.16811246584489], [129.09712904173074, 35.17162735002424], [129.09698570000546, 35.1733137169867], [129.09646211025685, 35.17345509131387], [129.09648095992867, 35.17736305140442], [129.097422891174, 35.17952126940156], [129.10434520589928, 35.180716342627214], [129.10708469186264, 35.179663617768966], [129.10718169002797, 35.17810970782351], [129.10794527160155, 35.17722632455684], [129.10957140145263, 35.176230163519904], [129.11110408065224, 35.1759400361438], [129.1123025738428, 35.17717498420807], [129.1149592075964, 35.1825968191078], [129.11551643510097, 35.18783048750806], [129.1184497281304, 35.18178225401597], [129.119258917037, 35.176751106648815], [129.12249905533562, 35.1730217184355], [129.12317120085623, 35.171051876632454], [129.1265833212837, 35.16602617330569], [129.13095017811176, 35.16328892553498], [129.13245262337935, 35.16170765797513], [129.13113928599338, 35.16113262127219], [129.1352124329799, 35.15664143586604], [129.1352802403618, 35.15566208849128], [129.1343682592253, 35.15470749908686], [129.1273999513482, 35.152454447098044], [129.1245258099203, 35.1523341802772], [129.12374165824045, 35.15449742126597], [129.1223271248991, 35.154560509783884], [129.12011344688662, 35.153892648565616], [129.11812653079724, 35.15249014263583], [129.11590419569734, 35.14968952477852], [129.1151366034389, 35.14798729734683], [129.11555095394763, 35.14618902642127], [129.11776580643354, 35.14598165730247], [129.1177438963802, 35.13984403690082], [129.11560909953937, 35.13954519940607], [129.11417371645706, 35.13733977949334], [129.11361272229686, 35.13756429320404]]]}}, {"type": "Feature", "id": 14, "properties": {"id": "yeongdo", "name": "Yeongdo-gu", "name_kr": "영도구", "tint": 0}, "geometry": {"type": "Polygon", "coordinates": [[[129.05175715947638, 35.07284250738602], [129.04177169213045, 35.080505238702315], [129.0408546859814, 35.08100507128731], [129.03988638379454, 35.08073177231654], [129.03471378597376, 35.08512071364402], [129.0313748529301, 35.09224282499297], [129.03152618794164, 35.09389269580063], [129.0331309208288, 35.09436997116372], [129.03357122428315, 35.09399873730596], [129.03312854266, 35.09385487609015], [129.03333536690232, 35.093338423453005], [129.0370986358608, 35.09187216050465], [129.03740893464285, 35.09238198018995], [129.0367085491223, 35.09263950913351], [129.03605780145315, 35.094516240190394], [129.03692475467798, 35.09472353010395], [129.03849708055327, 35.09362267838633], [129.0393019152104, 35.09510043095617], [129.0405667877743, 35.09584436597627], [129.04536495219048, 35.097186383834774], [129.0464697512317, 35.096801995466556], [129.04700498120116, 35.095829584209454], [129.0488140276164, 35.095307284618734], [129.04900890952442, 35.09572445500769], [129.0480492970573, 35.096411923896675], [129.04985993603168, 35.098252959936254], [129.05143245520634, 35.098589438637624], [129.05142568703323, 35.09976376259123], [129.05794213264312, 35.10124062215544], [129.06843392637214, 35.0959886495736], [129.07095668973585, 35.09394732627968], [129.0790288763826, 35.08490468900443], [129.07773826694967, 35.08363723788417], [129.08428764400523, 35.074203035802775], [129.08492386409685, 35.074491201127486], [129.08350887474776, 35.07611980355497], [129.08332667287016, 35.07951883785624], [129.0885969519089, 35.079714715585624], [129.0905022449656, 35.080377303303756], [129.09427059287262, 35.08069260653919], [129.09494563093943, 35.07896520939922], [129.0942659818991, 35.077420685080064], [129.09094395158382, 35.07421175395262], [129.08656092572625, 35.07273184425459], [129.08553517035213, 35.07393967048984], [129.07997959519076, 35.071384545121525], [129.0800150090736, 35.070951913822775], [129.08148880027883, 35.06930023503451], [129.08424469125157, 35.06819829962453], [129.08770325367612, 35.062936562753364], [129.09220822436703, 35.06097052019587], [129.09610107525427, 35.060060543941994], [129.09650103640186, 35.05956479434301], [129.09238575021695, 35.051741217493586], [129.08808517158414, 35.04955929841171], [129.0861401371516, 35.049283807611765], [129.0820087092498, 35.05101786904055], [129.08133124922313, 35.05283661896846], [129.08163050663802, 35.054006692420394], [129.0807297458055, 35.05625246261821], [129.07725765927427, 35.06038842741337], [129.07542665965934, 35.060795051513885], [129.0739327743213, 35.06042184638861], [129.07213378039089, 35.05870514758565], [129.07084353986636, 35.05848088519552], [129.07040053471204, 35.0595908562092], [129.06811029472468, 35.062163117832576], [129.06642137279437, 35.062513888889534], [129.0664376442971, 35.064225565963135], [129.06861369085917, 35.06498975278993], [129.0650917205994, 35.068391021534396], [129.06266900093178, 35.069490108037236], [129.056874097004, 35.06940453350414], [129.05201491934986, 35.07214930412287], [129.05175715947638, 35.07284250738602]]]}}, {"type": "Feature", "id": 15, "properties": {"id": "yeonje", "name": "Yeonje-gu", "name_kr": "연제구", "tint": 0}, "geometry": {"type": "Polygon", "coordinates": [[[129.08088515843897, 35.15971082201668], [129.07851942589934, 35.162416696134976], [129.07885434069456, 35.1657328571599], [129.07929423261035, 35.16666806021193], [129.08081055997448, 35.167741894365136], [129.08192432748382, 35.171744974445275], [129.07553767481735, 35.177305052988125], [129.07190730762048, 35.17958722641383], [129.07194289180015, 35.17793565716393], [129.07026728099098, 35.17583335774011], [129.06734108929712, 35.176901079556664], [129.06296520189372, 35.17748983675622], [129.0627278682078, 35.17869776350469], [129.061656377898, 35.18025331078586], [129.0612026480533, 35.183892703158996], [129.05396744224095, 35.18432487696533], [129.05203714806433, 35.18477676258272], [129.05096544903554, 35.185797890528434], [129.04697401242035, 35.19185820508527], [129.04768709934498, 35.194205354841635], [129.0530596726225, 35.19207988548004], [129.05576764418285, 35.19237489372974], [129.05988447404104, 35.19130314259165], [129.06461965061138, 35.19224559539907], [129.06420308058964, 35.19370123928072], [129.0712285541053, 35.19512139594783], [129.0742621369585, 35.198057395987036], [129.07791497787318, 35.19940384915842], [129.08032678260702, 35.19926690530353], [129.08405601660903, 35.19562783030735], [129.08637208925722, 35.194383233683894], [129.1023705514548, 35.190985270951636], [129.10838087354938, 35.19041339155272], [129.11051622168225, 35.18964437792336], [129.11240573054803, 35.1862657275411], [129.11515612736235, 35.18318347003634], [129.1123025738428, 35.17717498420807], [129.11110408065224, 35.1759400361438], [129.10957140145263, 35.176230163519904], [129.10794527160155, 35.17722632455684], [129.10718169002797, 35.17810970782351], [129.10708469186264, 35.179663617768966], [129.10434520589928, 35.180716342627214], [129.097422891174, 35.17952126940156], [129.09648095992867, 35.17736305140442], [129.09646211025685, 35.17345509131387], [129.09698570000546, 35.1733137169867], [129.09712904173074, 35.17162735002424], [129.09473477164147, 35.16811246584489], [129.09231959764134, 35.16616723541153], [129.0939412111589, 35.16260233422132], [129.09482351648995, 35.16174060161668], [129.09436952078795, 35.161140098323166], [129.09276629017978, 35.16031717781803], [129.0893935190093, 35.160809261946916], [129.08801737633013, 35.16047285436853], [129.08293072250794, 35.15823841213367], [129.0820334198332, 35.15947867215036], [129.08088515843897, 35.15971082201668]]]}}]}