{
 "type": "FeatureCollection",
 "meta": {
  "generated": "2026-09-12",
  "source": "administrative-dong (행정동) boundaries from vuski/admdongkor ver20230701, merged/simplified per neighborhood; ikseondong hand-traced (see its feature's properties.source)"
 },
 "features": [
  {
   "type": "Feature",
   "properties": {
    "id": "myeongdong",
    "source": "administrative-dong (vuski/admdongkor)",
    "dongs": [
     "명동"
    ]
   },
   "geometry": {
    "type": "Polygon",
    "coordinates": [
     [
      [
       126.97537470991254,
       37.56931556702156
      ],
      [
       126.98269213866654,
       37.56889046468609
      ],
      [
       126.98659924319325,
       37.56821348455565
      ],
      [
       126.99086878245063,
       37.56824324248877
      ],
      [
       126.99059547464512,
       37.566182484345205
      ],
      [
       126.98976070787944,
       37.566133812115865
      ],
      [
       126.98859336353007,
       37.56524875593655
      ],
      [
       126.98850770623399,
       37.564736934192865
      ],
      [
       126.98876050863389,
       37.56290728134311
      ],
      [
       126.99031773914612,
       37.56295551238242
      ],
      [
       126.9905181656508,
       37.56119884635328
      ],
      [
       126.98854450653435,
       37.56038921814461
      ],
      [
       126.98691508344605,
       37.55745389208485
      ],
      [
       126.98485958967991,
       37.5562991032275
      ],
      [
       126.98475704516987,
       37.55588506294212
      ],
      [
       126.98536412773345,
       37.5542383883403
      ],
      [
       126.98384189938538,
       37.553960165346915
      ],
      [
       126.98358268660122,
       37.554199016031916
      ],
      [
       126.98315200348596,
       37.55795462838923
      ],
      [
       126.98222699652324,
       37.56009225603973
      ],
      [
       126.98126138975584,
       37.5612630369372
      ],
      [
       126.98108737734889,
       37.56180104199569
      ],
      [
       126.98203817295538,
       37.56295736377829
      ],
      [
       126.98264628375576,
       37.5659492853039
      ],
      [
       126.97971711380663,
       37.565883704684765
      ],
      [
       126.97835066896093,
       37.56543985096957
      ],
      [
       126.97563614739646,
       37.56775642220666
      ],
      [
       126.97529367787995,
       37.56865839132112
      ],
      [
       126.97537470991254,
       37.56931556702156
      ]
     ]
    ]
   }
  },
  {
   "type": "Feature",
   "properties": {
    "id": "euljiro",
    "source": "administrative-dong (vuski/admdongkor)",
    "dongs": [
     "을지로동"
    ]
   },
   "geometry": {
    "type": "Polygon",
    "coordinates": [
     [
      [
       126.9934719028237,
       37.56300289844828
      ],
      [
       126.99142895550477,
       37.56329950229423
      ],
      [
       126.98988622037419,
       37.56288048898898
      ],
      [
       126.98876050863389,
       37.56290728134311
      ],
      [
       126.98859336353007,
       37.56524875593655
      ],
      [
       126.98976070787944,
       37.566133812115865
      ],
      [
       126.99059547464512,
       37.566182484345205
      ],
      [
       126.99086878245063,
       37.56824324248877
      ],
      [
       126.99669662654541,
       37.56870989125176
      ],
      [
       127.00162224915923,
       37.56959157448218
      ],
      [
       127.00668360999161,
       37.56964776113221
      ],
      [
       127.00546429624715,
       37.56931479456103
      ],
      [
       127.00498771966011,
       37.5688204361892
      ],
      [
       127.00416337977543,
       37.566761907990774
      ],
      [
       127.00322688446649,
       37.565288776839914
      ],
      [
       127.00152798519167,
       37.565882435428676
      ],
      [
       126.99589032493469,
       37.56547059864012
      ],
      [
       126.9950543794229,
       37.56508622215564
      ],
      [
       126.9934719028237,
       37.56300289844828
      ]
     ]
    ]
   }
  },
  {
   "type": "Feature",
   "properties": {
    "id": "itaewon",
    "source": "administrative-dong (vuski/admdongkor)",
    "dongs": [
     "이태원1동",
     "이태원2동"
    ]
   },
   "geometry": {
    "type": "Polygon",
    "coordinates": [
     [
      [
       126.994798752438,
       37.52873478412915
      ],
      [
       126.99133339350598,
       37.5294656660908
      ],
      [
       126.99136150372732,
       37.529905318374546
      ],
      [
       126.98877721454316,
       37.53357280537875
      ],
      [
       126.98788592895845,
       37.53438457717329
      ],
      [
       126.98737556860816,
       37.53443991328637
      ],
      [
       126.98695325608236,
       37.53568147624402
      ],
      [
       126.9867882705315,
       37.53745576414636
      ],
      [
       126.98696865680402,
       37.53890209031955
      ],
      [
       126.98856380944875,
       37.54305499925321
      ],
      [
       126.9909468392174,
       37.54636897172699
      ],
      [
       126.9914173305739,
       37.54782780645427
      ],
      [
       126.99319410795592,
       37.54905562616136
      ],
      [
       126.99650535636687,
       37.54602099719253
      ],
      [
       126.99786239881355,
       37.54221750912124
      ],
      [
       126.99780505805529,
       37.54125480687935
      ],
      [
       126.99733904652541,
       37.54071784500694
      ],
      [
       126.99551695209077,
       37.53961605942692
      ],
      [
       126.99512383702977,
       37.53821841191652
      ],
      [
       126.99703620646464,
       37.53335138412458
      ],
      [
       126.9978700030165,
       37.53261350853067
      ],
      [
       126.994798752438,
       37.52873478412915
      ]
     ]
    ]
   }
  },
  {
   "type": "Feature",
   "properties": {
    "id": "haebangchon",
    "source": "administrative-dong (vuski/admdongkor)",
    "dongs": [
     "용산2가동"
    ]
   },
   "geometry": {
    "type": "Polygon",
    "coordinates": [
     [
      [
       126.99235997402253,
       37.550093126422475
      ],
      [
       126.99319410795592,
       37.54905562616136
      ],
      [
       126.9914173305739,
       37.54782780645427
      ],
      [
       126.9909468392174,
       37.54636897172699
      ],
      [
       126.98856380944875,
       37.54305499925321
      ],
      [
       126.98678101534364,
       37.538203854340495
      ],
      [
       126.98695325608236,
       37.53568147624402
      ],
      [
       126.98737556860816,
       37.53443991328637
      ],
      [
       126.98788592895845,
       37.53438457717329
      ],
      [
       126.98877721454316,
       37.53357280537875
      ],
      [
       126.99136150372732,
       37.529905318374546
      ],
      [
       126.99133339350598,
       37.5294656660908
      ],
      [
       126.98379900363237,
       37.52941957522318
      ],
      [
       126.98379749297368,
       37.53115457305566
      ],
      [
       126.97924273283924,
       37.532774011178645
      ],
      [
       126.97905805574072,
       37.537968359940415
      ],
      [
       126.97639663307754,
       37.53807151143617
      ],
      [
       126.97460205509674,
       37.54066393766044
      ],
      [
       126.97347962604672,
       37.54526263583127
      ],
      [
       126.9838004560955,
       37.54652835678399
      ],
      [
       126.9860321445812,
       37.5478461760748
      ],
      [
       126.9873735964717,
       37.54950485781342
      ],
      [
       126.98781141729891,
       37.551491980275394
      ],
      [
       126.99235997402253,
       37.550093126422475
      ]
     ]
    ]
   }
  },
  {
   "type": "Feature",
   "properties": {
    "id": "hannam",
    "source": "administrative-dong (vuski/admdongkor)",
    "dongs": [
     "한남동"
    ]
   },
   "geometry": {
    "type": "Polygon",
    "coordinates": [
     [
      [
       127.00530573624769,
       37.54771217113099
      ],
      [
       127.00484260490366,
       37.546182262833796
      ],
      [
       127.00725813748895,
       37.54381073731256
      ],
      [
       127.00860603570271,
       37.5439797142403
      ],
      [
       127.00833696037861,
       37.54185929062551
      ],
      [
       127.00932275981805,
       37.53967748124034
      ],
      [
       127.01153303960568,
       37.53898146832435
      ],
      [
       127.012889891509,
       37.539313813299806
      ],
      [
       127.01478926311766,
       37.538901377441235
      ],
      [
       127.02092441234515,
       37.53511935680614
      ],
      [
       127.00797217618856,
       37.52458897654878
      ],
      [
       127.00389157078169,
       37.52716555266759
      ],
      [
       127.00285024505669,
       37.5281425215702
      ],
      [
       127.0031618845765,
       37.52882886168497
      ],
      [
       127.00369298565283,
       37.529273884691335
      ],
      [
       127.00354452456624,
       37.53000899034081
      ],
      [
       127.00091616882422,
       37.531673302019186
      ],
      [
       126.9978700030165,
       37.53261350853067
      ],
      [
       126.99703620646464,
       37.53335138412458
      ],
      [
       126.99512383702977,
       37.53821841191652
      ],
      [
       126.99551695209077,
       37.53961605942692
      ],
      [
       126.99733904652541,
       37.54071784500694
      ],
      [
       126.99780505805529,
       37.54125480687935
      ],
      [
       126.99786239881355,
       37.54221750912124
      ],
      [
       126.99650535636687,
       37.54602099719253
      ],
      [
       126.99532055586175,
       37.5472372699923
      ],
      [
       126.99852177718344,
       37.549931299316114
      ],
      [
       127.00025315880767,
       37.5495082452712
      ],
      [
       127.0026844109379,
       37.54960075852897
      ],
      [
       127.00422527899485,
       37.55037563944464
      ],
      [
       127.00471559662431,
       37.54834740546745
      ],
      [
       127.0058944050891,
       37.54820461733567
      ],
      [
       127.00530573624769,
       37.54771217113099
      ]
     ]
    ]
   }
  },
  {
   "type": "Feature",
   "properties": {
    "id": "hongdae",
    "source": "administrative-dong (vuski/admdongkor)",
    "dongs": [
     "서교동"
    ]
   },
   "geometry": {
    "type": "Polygon",
    "coordinates": [
     [
      [
       126.91353477929526,
       37.54948323708437
      ],
      [
       126.91165823592671,
       37.55421956099342
      ],
      [
       126.90879758955973,
       37.55741869164588
      ],
      [
       126.90908926599086,
       37.55765668378945
      ],
      [
       126.91201066199343,
       37.55826172150363
      ],
      [
       126.91616539177019,
       37.55830332402729
      ],
      [
       126.91760207824414,
       37.55883815488034
      ],
      [
       126.91877993188389,
       37.55754043390255
      ],
      [
       126.92161365409822,
       37.559465942040426
      ],
      [
       126.92625245238841,
       37.561220601914144
      ],
      [
       126.9271428752853,
       37.56175108622682
      ],
      [
       126.92667753640022,
       37.56058376609458
      ],
      [
       126.9266253047208,
       37.558831594500134
      ],
      [
       126.93686652452007,
       37.55510319990801
      ],
      [
       126.93407931603565,
       37.553424478912795
      ],
      [
       126.93094490548935,
       37.55471356454587
      ],
      [
       126.92504272690499,
       37.553174745270724
      ],
      [
       126.92409608173598,
       37.55222706247578
      ],
      [
       126.92423553563289,
       37.55092980296554
      ],
      [
       126.9218517485528,
       37.54909968700363
      ],
      [
       126.92029542024615,
       37.54831353113425
      ],
      [
       126.9150855678079,
       37.54917790465855
      ],
      [
       126.91438770750356,
       37.549765052210525
      ],
      [
       126.91562002354586,
       37.5507012295055
      ],
      [
       126.91540911202985,
       37.550882153836795
      ],
      [
       126.91353477929526,
       37.54948323708437
      ]
     ]
    ]
   }
  },
  {
   "type": "Feature",
   "properties": {
    "id": "mangwon",
    "source": "administrative-dong (vuski/admdongkor)",
    "dongs": [
     "망원1동",
     "망원2동"
    ]
   },
   "geometry": {
    "type": "Polygon",
    "coordinates": [
     [
      [
       126.91165823592671,
       37.55421956099342
      ],
      [
       126.90283525631058,
       37.55146346364422
      ],
      [
       126.89675635222676,
       37.54631737308834
      ],
      [
       126.88975440070294,
       37.55017183813918
      ],
      [
       126.88316628434919,
       37.55446522843518
      ],
      [
       126.89432151260569,
       37.559890488821104
      ],
      [
       126.90196022271859,
       37.56303343439582
      ],
      [
       126.90333728817063,
       37.56330283738474
      ],
      [
       126.91165823592671,
       37.55421956099342
      ]
     ]
    ]
   }
  },
  {
   "type": "Feature",
   "properties": {
    "id": "seongsu",
    "source": "administrative-dong (vuski/admdongkor)",
    "dongs": [
     "성수1가1동",
     "성수1가2동",
     "성수2가1동",
     "성수2가3동"
    ]
   },
   "geometry": {
    "type": "Polygon",
    "coordinates": [
     [
      [
       127.04905842559162,
       37.53255215318234
      ],
      [
       127.04596169234225,
       37.53250292666626
      ],
      [
       127.02985684594884,
       37.538864306165756
      ],
      [
       127.02828346034805,
       37.5385279110979
      ],
      [
       127.03109362490015,
       37.54595610640449
      ],
      [
       127.03039827886207,
       37.546271069569954
      ],
      [
       127.0324952299345,
       37.546748092507094
      ],
      [
       127.03437626488132,
       37.548159380236065
      ],
      [
       127.04006168024185,
       37.551330759872535
      ],
      [
       127.04046478483485,
       37.55249730329997
      ],
      [
       127.03983477004536,
       37.55291511357612
      ],
      [
       127.04176088549319,
       37.55270414946288
      ],
      [
       127.04449716779874,
       37.55300531481577
      ],
      [
       127.04800474835392,
       37.55287683059181
      ],
      [
       127.0525163498266,
       37.5516884576043
      ],
      [
       127.05218251494423,
       37.550837696834215
      ],
      [
       127.05865409907248,
       37.548646962269856
      ],
      [
       127.06225374622827,
       37.5481026511114
      ],
      [
       127.06749895994145,
       37.54831126401998
      ],
      [
       127.05656656376357,
       37.52910117290873
      ],
      [
       127.04905842559162,
       37.53255215318234
      ]
     ]
    ]
   }
  },
  {
   "type": "Feature",
   "properties": {
    "id": "mullae",
    "source": "administrative-dong (vuski/admdongkor)",
    "dongs": [
     "문래동"
    ]
   },
   "geometry": {
    "type": "Polygon",
    "coordinates": [
     [
      [
       126.88535919467645,
       37.52179268230676
      ],
      [
       126.89969031742075,
       37.519491336127835
      ],
      [
       126.90109575758922,
       37.51903765833564
      ],
      [
       126.9023569795072,
       37.51582284044117
      ],
      [
       126.90289256324711,
       37.51526333126933
      ],
      [
       126.90386341465006,
       37.514931356089825
      ],
      [
       126.90400360318226,
       37.51463684835631
      ],
      [
       126.89779449637555,
       37.51196554287021
      ],
      [
       126.89815715519023,
       37.51145362163085
      ],
      [
       126.89296962449474,
       37.50946107193752
      ],
      [
       126.89174806934338,
       37.50986935563009
      ],
      [
       126.89067536012493,
       37.51133188631738
      ],
      [
       126.88962755055745,
       37.512085852379926
      ],
      [
       126.87947300173846,
       37.51677180493009
      ],
      [
       126.8798054802541,
       37.52138057002454
      ],
      [
       126.88500978412162,
       37.52058756127729
      ],
      [
       126.88535919467645,
       37.52179268230676
      ]
     ]
    ]
   }
  },
  {
   "type": "Feature",
   "properties": {
    "id": "sinsa",
    "source": "administrative-dong (vuski/admdongkor)",
    "dongs": [
     "신사동",
     "압구정동"
    ]
   },
   "geometry": {
    "type": "MultiPolygon",
    "coordinates": [
     [
      [
       [
        126.9261806579414,
        37.48378064359189
       ],
       [
        126.91453871985395,
        37.481813777710485
       ],
       [
        126.91332350057007,
        37.48724737673505
       ],
       [
        126.91596844328257,
        37.48876242670654
       ],
       [
        126.91889070145248,
        37.48956214246952
       ],
       [
        126.92095411324858,
        37.48902808014812
       ],
       [
        126.92215329222589,
        37.48809203416798
       ],
       [
        126.92329048471692,
        37.48647965564832
       ],
       [
        126.9261806579414,
        37.48378064359189
       ]
      ]
     ],
     [
      [
       [
        127.02526080146446,
        37.518556420544876
       ],
       [
        127.01944104956044,
        37.515987241640666
       ],
       [
        127.0190251971729,
        37.51823713836514
       ],
       [
        127.01760920835164,
        37.52209029170141
       ],
       [
        127.01460227682493,
        37.5255087528872
       ],
       [
        127.01186811487119,
        37.5278410044609
       ],
       [
        127.02005930269905,
        37.53456262055564
       ],
       [
        127.02156491849887,
        37.535530965877896
       ],
       [
        127.0256997843901,
        37.53786411011562
       ],
       [
        127.02985684594884,
        37.538864306165756
       ],
       [
        127.04596169234225,
        37.53250292666626
       ],
       [
        127.04379003054346,
        37.52705285742561
       ],
       [
        127.04079734568965,
        37.52779129908323
       ],
       [
        127.03912230695038,
        37.52346851790512
       ],
       [
        127.03917807519049,
        37.52290539552294
       ],
       [
        127.03883670715882,
        37.52298405117769
       ],
       [
        127.02526080146446,
        37.518556420544876
       ]
      ]
     ]
    ]
   }
  },
  {
   "type": "Feature",
   "properties": {
    "id": "bukchon",
    "source": "administrative-dong (vuski/admdongkor)",
    "dongs": [
     "가회동",
     "삼청동",
     "청운효자동"
    ]
   },
   "geometry": {
    "type": "Polygon",
    "coordinates": [
     [
      [
       126.98907504810013,
       37.59139446162827
      ],
      [
       126.98803085507372,
       37.58554745777863
      ],
      [
       126.98885909648946,
       37.585495326154245
      ],
      [
       126.98977235780139,
       37.582320911004366
      ],
      [
       126.98930023627912,
       37.57738738356293
      ],
      [
       126.98824012155258,
       37.577367019793876
      ],
      [
       126.98553316382565,
       37.57667402546201
      ],
      [
       126.98314665239185,
       37.57552636292861
      ],
      [
       126.9795924891094,
       37.57597727455634
      ],
      [
       126.97688884274817,
       37.575650779448786
      ],
      [
       126.97433153835757,
       37.57574990629986
      ],
      [
       126.97381925784454,
       37.579372140302624
      ],
      [
       126.97135197544759,
       37.57951327793981
      ],
      [
       126.96990457361626,
       37.57930175362873
      ],
      [
       126.96941453886579,
       37.57812112414217
      ],
      [
       126.96895511695477,
       37.57793526234028
      ],
      [
       126.96806604699626,
       37.57824678046788
      ],
      [
       126.9674570900956,
       37.57897525058544
      ],
      [
       126.96742431584332,
       37.57960153712449
      ],
      [
       126.96281041047263,
       37.57944880965677
      ],
      [
       126.96067353273895,
       37.58079784202973
      ],
      [
       126.95789532461893,
       37.583811410465415
      ],
      [
       126.9577538691774,
       37.584868680012
      ],
      [
       126.95886514945398,
       37.58595764505004
      ],
      [
       126.96050597525429,
       37.586263725012984
      ],
      [
       126.96223300535345,
       37.58698592219034
      ],
      [
       126.96423724410882,
       37.58913797948431
      ],
      [
       126.96411161383803,
       37.58998139049233
      ],
      [
       126.96457451385055,
       37.59097261926833
      ],
      [
       126.9664337494751,
       37.59293244072924
      ],
      [
       126.96813865294972,
       37.59361163575198
      ],
      [
       126.96892484394625,
       37.59336392580812
      ],
      [
       126.97193752649407,
       37.5938857822259
      ],
      [
       126.97358726355343,
       37.593289023280704
      ],
      [
       126.97585113775686,
       37.59656422224409
      ],
      [
       126.98105808767329,
       37.59506510110589
      ],
      [
       126.98268938649305,
       37.5950655194224
      ],
      [
       126.98386809792802,
       37.59385046812643
      ],
      [
       126.9857592771792,
       37.59279401160435
      ],
      [
       126.98947579208668,
       37.5917950211998
      ],
      [
       126.98907504810013,
       37.59139446162827
      ]
     ]
    ]
   }
  },
  {
   "type": "Feature",
   "properties": {
    "id": "ikseondong",
    "source": "hand-traced (no administrative-dong match at this scale)"
   },
   "geometry": {
    "type": "Polygon",
    "coordinates": [
     [
      [
       126.98845,
       37.57455
      ],
      [
       126.99035,
       37.5746
      ],
      [
       126.99135,
       37.5733
      ],
      [
       126.99095,
       37.57155
      ],
      [
       126.98925,
       37.5715
      ],
      [
       126.98815,
       37.5728
      ],
      [
       126.98845,
       37.57455
      ]
     ]
    ]
   }
  }
 ]
}